{
"type": "FeatureCollection",
"name": "COBA 1",
"crs": { "type": "name", "properties": { "name": "urn:ogc:def:crs:OGC:1.3:CRS84" } },
"features": [
{ "type": "Feature", "properties": { "id": "ACEH-001", "nama": "Contoh Proyek Jalan Aceh Barat", "kabupaten": "Aceh Barat", "kecamatan": "Kecamatan contoh", "jenis": "Jalan", "tahun": 2026, "nilai": 2500000000.0, "kontraktor": "Contoh Penyedia Jasa", "status": "Berjalan", "progress": 35, "latitude": 4.144, "longitude": 96.128, "foto": null, "deskripsi": "Data demonstrasi. Ganti dengan data proyek yang telah diverifikasi." }, "geometry": { "type": "Point", "coordinates": [ 96.128, 4.144 ] } },
{ "type": "Feature", "properties": { "id": "ACEH-002", "nama": "Contoh Proyek Jembatan Aceh Barat Daya", "kabupaten": "Aceh Barat Daya", "kecamatan": "Kecamatan contoh", "jenis": "Jembatan", "tahun": 2026, "nilai": 4800000000.0, "kontraktor": "Contoh Penyedia Jasa", "status": "Selesai", "progress": 100, "latitude": 3.753, "longitude": 97.059, "foto": null, "deskripsi": "Data demonstrasi. Ganti dengan data proyek yang telah diverifikasi." }, "geometry": { "type": "Point", "coordinates": [ 97.059, 3.753 ] } },
{ "type": "Feature", "properties": { "id": "ACEH-003", "nama": "Contoh Proyek Gedung Aceh Besar", "kabupaten": "Aceh Besar", "kecamatan": "Kecamatan contoh", "jenis": "Gedung", "tahun": 2026, "nilai": 7200000000.0, "kontraktor": "Contoh Penyedia Jasa", "status": "Rencana", "progress": 0, "latitude": 5.383, "longitude": 95.52, "foto": null, "deskripsi": "Data demonstrasi. Ganti dengan data proyek yang telah diverifikasi." }, "geometry": { "type": "Point", "coordinates": [ 95.52, 5.383 ] } },
{ "type": "Feature", "properties": { "id": "ACEH-004", "nama": "Contoh Proyek Drainase Aceh Jaya", "kabupaten": "Aceh Jaya", "kecamatan": "Kecamatan contoh", "jenis": "Drainase", "tahun": 2026, "nilai": 10500000000.0, "kontraktor": "Contoh Penyedia Jasa", "status": "Berjalan", "progress": 71, "latitude": 4.787, "longitude": 95.645, "foto": null, "deskripsi": "Data demonstrasi. Ganti dengan data proyek yang telah diverifikasi." }, "geometry": { "type": "Point", "coordinates": [ 95.645, 4.787 ] } },
{ "type": "Feature", "properties": { "id": "ACEH-005", "nama": "Contoh Proyek Irigasi Aceh Selatan", "kabupaten": "Aceh Selatan", "kecamatan": "Kecamatan contoh", "jenis": "Irigasi", "tahun": 2026, "nilai": 15000000000.0, "kontraktor": "Contoh Penyedia Jasa", "status": "Selesai", "progress": 100, "latitude": 3.264, "longitude": 97.18, "foto": null, "deskripsi": "Data demonstrasi. Ganti dengan data proyek yang telah diverifikasi." }, "geometry": { "type": "Point", "coordinates": [ 97.18, 3.264 ] } },
{ "type": "Feature", "properties": { "id": "ACEH-006", "nama": "Contoh Proyek Jalan Aceh Singkil", "kabupaten": "Aceh Singkil", "kecamatan": "Kecamatan contoh", "jenis": "Jalan", "tahun": 2026, "nilai": 2500000000.0, "kontraktor": "Contoh Penyedia Jasa", "status": "Rencana", "progress": 0, "latitude": 2.287, "longitude": 97.788, "foto": null, "deskripsi": "Data demonstrasi. Ganti dengan data proyek yang telah diverifikasi." }, "geometry": { "type": "Point", "coordinates": [ 97.788, 2.287 ] } },
{ "type": "Feature", "properties": { "id": "ACEH-007", "nama": "Contoh Proyek Jembatan Aceh Tamiang", "kabupaten": "Aceh Tamiang", "kecamatan": "Kecamatan contoh", "jenis": "Jembatan", "tahun": 2026, "nilai": 4800000000.0, "kontraktor": "Contoh Penyedia Jasa", "status": "Berjalan", "progress": 48, "latitude": 4.254, "longitude": 98.003, "foto": null, "deskripsi": "Data demonstrasi. Ganti dengan data proyek yang telah diverifikasi." }, "geometry": { "type": "Point", "coordinates": [ 98.003, 4.254 ] } },
{ "type": "Feature", "properties": { "id": "ACEH-008", "nama": "Contoh Proyek Gedung Aceh Tengah", "kabupaten": "Aceh Tengah", "kecamatan": "Kecamatan contoh", "jenis": "Gedung", "tahun": 2026, "nilai": 7200000000.0, "kontraktor": "Contoh Penyedia Jasa", "status": "Selesai", "progress": 100, "latitude": 4.626, "longitude": 96.831, "foto": null, "deskripsi": "Data demonstrasi. Ganti dengan data proyek yang telah diverifikasi." }, "geometry": { "type": "Point", "coordinates": [ 96.831, 4.626 ] } },
{ "type": "Feature", "properties": { "id": "ACEH-009", "nama": "Contoh Proyek Drainase Aceh Tenggara", "kabupaten": "Aceh Tenggara", "kecamatan": "Kecamatan contoh", "jenis": "Drainase", "tahun": 2026, "nilai": 10500000000.0, "kontraktor": "Contoh Penyedia Jasa", "status": "Rencana", "progress": 0, "latitude": 3.374, "longitude": 97.702, "foto": null, "deskripsi": "Data demonstrasi. Ganti dengan data proyek yang telah diverifikasi." }, "geometry": { "type": "Point", "coordinates": [ 97.702, 3.374 ] } },
{ "type": "Feature", "properties": { "id": "ACEH-010", "nama": "Contoh Proyek Irigasi Aceh Timur", "kabupaten": "Aceh Timur", "kecamatan": "Kecamatan contoh", "jenis": "Irigasi", "tahun": 2026, "nilai": 15000000000.0, "kontraktor": "Contoh Penyedia Jasa", "status": "Berjalan", "progress": 84, "latitude": 4.633, "longitude": 97.7, "foto": null, "deskripsi": "Data demonstrasi. Ganti dengan data proyek yang telah diverifikasi." }, "geometry": { "type": "Point", "coordinates": [ 97.7, 4.633 ] } },
{ "type": "Feature", "properties": { "id": "ACEH-011", "nama": "Contoh Proyek Jalan Aceh Utara", "kabupaten": "Aceh Utara", "kecamatan": "Kecamatan contoh", "jenis": "Jalan", "tahun": 2026, "nilai": 2500000000.0, "kontraktor": "Contoh Penyedia Jasa", "status": "Selesai", "progress": 100, "latitude": 5.0, "longitude": 97.15, "foto": null, "deskripsi": "Data demonstrasi. Ganti dengan data proyek yang telah diverifikasi." }, "geometry": { "type": "Point", "coordinates": [ 97.15, 5.0 ] } },
{ "type": "Feature", "properties": { "id": "ACEH-012", "nama": "Contoh Proyek Jembatan Bener Meriah", "kabupaten": "Bener Meriah", "kecamatan": "Kecamatan contoh", "jenis": "Jembatan", "tahun": 2026, "nilai": 4800000000.0, "kontraktor": "Contoh Penyedia Jasa", "status": "Rencana", "progress": 0, "latitude": 4.745, "longitude": 96.969, "foto": null, "deskripsi": "Data demonstrasi. Ganti dengan data proyek yang telah diverifikasi." }, "geometry": { "type": "Point", "coordinates": [ 96.969, 4.745 ] } },
{ "type": "Feature", "properties": { "id": "ACEH-013", "nama": "Contoh Proyek Gedung Bireuen", "kabupaten": "Bireuen", "kecamatan": "Kecamatan contoh", "jenis": "Gedung", "tahun": 2026, "nilai": 7200000000.0, "kontraktor": "Contoh Penyedia Jasa", "status": "Berjalan", "progress": 62, "latitude": 5.182, "longitude": 96.7, "foto": null, "deskripsi": "Data demonstrasi. Ganti dengan data proyek yang telah diverifikasi." }, "geometry": { "type": "Point", "coordinates": [ 96.7, 5.182 ] } },
{ "type": "Feature", "properties": { "id": "ACEH-014", "nama": "Contoh Proyek Drainase Gayo Lues", "kabupaten": "Gayo Lues", "kecamatan": "Kecamatan contoh", "jenis": "Drainase", "tahun": 2026, "nilai": 10500000000.0, "kontraktor": "Contoh Penyedia Jasa", "status": "Selesai", "progress": 100, "latitude": 3.995, "longitude": 97.397, "foto": null, "deskripsi": "Data demonstrasi. Ganti dengan data proyek yang telah diverifikasi." }, "geometry": { "type": "Point", "coordinates": [ 97.397, 3.995 ] } },
{ "type": "Feature", "properties": { "id": "ACEH-015", "nama": "Contoh Proyek Irigasi Nagan Raya", "kabupaten": "Nagan Raya", "kecamatan": "Kecamatan contoh", "jenis": "Irigasi", "tahun": 2026, "nilai": 15000000000.0, "kontraktor": "Contoh Penyedia Jasa", "status": "Rencana", "progress": 0, "latitude": 4.166, "longitude": 96.492, "foto": null, "deskripsi": "Data demonstrasi. Ganti dengan data proyek yang telah diverifikasi." }, "geometry": { "type": "Point", "coordinates": [ 96.492, 4.166 ] } },
{ "type": "Feature", "properties": { "id": "ACEH-016", "nama": "Contoh Proyek Jalan Pidie", "kabupaten": "Pidie", "kecamatan": "Kecamatan contoh", "jenis": "Jalan", "tahun": 2026, "nilai": 2500000000.0, "kontraktor": "Contoh Penyedia Jasa", "status": "Berjalan", "progress": 35, "latitude": 5.389, "longitude": 95.96, "foto": null, "deskripsi": "Data demonstrasi. Ganti dengan data proyek yang telah diverifikasi." }, "geometry": { "type": "Point", "coordinates": [ 95.96, 5.389 ] } },
{ "type": "Feature", "properties": { "id": "ACEH-017", "nama": "Contoh Proyek Jembatan Pidie Jaya", "kabupaten": "Pidie Jaya", "kecamatan": "Kecamatan contoh", "jenis": "Jembatan", "tahun": 2026, "nilai": 4800000000.0, "kontraktor": "Contoh Penyedia Jasa", "status": "Selesai", "progress": 100, "latitude": 5.157, "longitude": 96.195, "foto": null, "deskripsi": "Data demonstrasi. Ganti dengan data proyek yang telah diverifikasi." }, "geometry": { "type": "Point", "coordinates": [ 96.195, 5.157 ] } },
{ "type": "Feature", "properties": { "id": "ACEH-018", "nama": "Contoh Proyek Gedung Simeulue", "kabupaten": "Simeulue", "kecamatan": "Kecamatan contoh", "jenis": "Gedung", "tahun": 2026, "nilai": 7200000000.0, "kontraktor": "Contoh Penyedia Jasa", "status": "Rencana", "progress": 0, "latitude": 2.583, "longitude": 96.025, "foto": null, "deskripsi": "Data demonstrasi. Ganti dengan data proyek yang telah diverifikasi." }, "geometry": { "type": "Point", "coordinates": [ 96.025, 2.583 ] } },
{ "type": "Feature", "properties": { "id": "ACEH-019", "nama": "Contoh Proyek Drainase Banda Aceh", "kabupaten": "Banda Aceh", "kecamatan": "Kecamatan contoh", "jenis": "Drainase", "tahun": 2026, "nilai": 10500000000.0, "kontraktor": "Contoh Penyedia Jasa", "status": "Berjalan", "progress": 71, "latitude": 5.548, "longitude": 95.323, "foto": null, "deskripsi": "Data demonstrasi. Ganti dengan data proyek yang telah diverifikasi." }, "geometry": { "type": "Point", "coordinates": [ 95.323, 5.548 ] } },
{ "type": "Feature", "properties": { "id": "ACEH-020", "nama": "Contoh Proyek Irigasi Langsa", "kabupaten": "Langsa", "kecamatan": "Kecamatan contoh", "jenis": "Irigasi", "tahun": 2026, "nilai": 15000000000.0, "kontraktor": "Contoh Penyedia Jasa", "status": "Selesai", "progress": 100, "latitude": 4.468, "longitude": 97.968, "foto": null, "deskripsi": "Data demonstrasi. Ganti dengan data proyek yang telah diverifikasi." }, "geometry": { "type": "Point", "coordinates": [ 97.968, 4.468 ] } },
{ "type": "Feature", "properties": { "id": "ACEH-021", "nama": "Contoh Proyek Jalan Lhokseumawe", "kabupaten": "Lhokseumawe", "kecamatan": "Kecamatan contoh", "jenis": "Jalan", "tahun": 2026, "nilai": 2500000000.0, "kontraktor": "Contoh Penyedia Jasa", "status": "Rencana", "progress": 0, "latitude": 5.18, "longitude": 97.15, "foto": null, "deskripsi": "Data demonstrasi. Ganti dengan data proyek yang telah diverifikasi." }, "geometry": { "type": "Point", "coordinates": [ 97.15, 5.18 ] } },
{ "type": "Feature", "properties": { "id": "ACEH-022", "nama": "Contoh Proyek Jembatan Sabang", "kabupaten": "Sabang", "kecamatan": "Kecamatan contoh", "jenis": "Jembatan", "tahun": 2026, "nilai": 4800000000.0, "kontraktor": "Contoh Penyedia Jasa", "status": "Berjalan", "progress": 48, "latitude": 5.892, "longitude": 95.323, "foto": null, "deskripsi": "Data demonstrasi. Ganti dengan data proyek yang telah diverifikasi." }, "geometry": { "type": "Point", "coordinates": [ 95.323, 5.892 ] } },
{ "type": "Feature", "properties": { "id": "ACEH-023", "nama": "Contoh Proyek Gedung Subulussalam", "kabupaten": "Subulussalam", "kecamatan": "Kecamatan contoh", "jenis": "Gedung", "tahun": 2026, "nilai": 7200000000.0, "kontraktor": "Contoh Penyedia Jasa", "status": "Selesai", "progress": 100, "latitude": 2.643, "longitude": 97.918, "foto": null, "deskripsi": "Data demonstrasi. Ganti dengan data proyek yang telah diverifikasi." }, "geometry": { "type": "Point", "coordinates": [ 97.918, 2.643 ] } }
]
}
